FLOCK 4BE-17            
1 60492U 24149AA  26068.75980080  .00018261  00000+0  51180-3 0  9995
2 60492  97.3810 151.5565 0002355 232.0178 128.0854 15.36654617 86979
KUIPER-00160            
1 67765U 26030B   26068.76407567  .00036682  00000+0  10486-2 0  9991
2 67765  51.8805 218.8175 0005273  54.1950 305.9525 15.35623214  5100
