[{"OBJECT_NAME":"FLOCK 4BE-17","OBJECT_ID":"2024-149AA","EPOCH":"2026-03-09T18:14:06.789984","MEAN_MOTION":15.36654618,"ECCENTRICITY":0.00023553,"INCLINATION":97.381,"RA_OF_ASC_NODE":151.5565,"ARG_OF_PERICENTER":232.0178,"MEAN_ANOMALY":128.0854,"EPHEMERIS_TYPE":0,"CLASSIFICATION_TYPE":"U","NORAD_CAT_ID":60492,"ELEMENT_SET_NO":999,"REV_AT_EPOCH":8697,"BSTAR":0.00051180052,"MEAN_MOTION_DOT":0.00018261,"MEAN_MOTION_DDOT":0},{"OBJECT_NAME":"KUIPER-00160","OBJECT_ID":"2026-030B","EPOCH":"2026-03-09T18:20:16.137888","MEAN_MOTION":15.35623214,"ECCENTRICITY":0.00052725,"INCLINATION":51.8805,"RA_OF_ASC_NODE":218.8175,"ARG_OF_PERICENTER":54.195,"MEAN_ANOMALY":305.9525,"EPHEMERIS_TYPE":0,"CLASSIFICATION_TYPE":"U","NORAD_CAT_ID":67765,"ELEMENT_SET_NO":999,"REV_AT_EPOCH":510,"BSTAR":0.0010485695,"MEAN_MOTION_DOT":0.00036682,"MEAN_MOTION_DDOT":0}]
